[{"OBJECT_NAME":"STARLINK-34696","OBJECT_ID":"2025-150U","EPOCH":"2026-03-09T14:41:13.275744","MEAN_MOTION":14.98315952,"ECCENTRICITY":0.0003774,"INCLINATION":70.0012,"RA_OF_ASC_NODE":134.7125,"ARG_OF_PERICENTER":267.9123,"MEAN_ANOMALY":92.1604,"EPHEMERIS_TYPE":0,"CLASSIFICATION_TYPE":"U","NORAD_CAT_ID":64808,"ELEMENT_SET_NO":999,"REV_AT_EPOCH":3650,"BSTAR":-5.5574e-5,"MEAN_MOTION_DOT":-7.56e-6,"MEAN_MOTION_DDOT":0},{"OBJECT_NAME":"CP8 (IPEX)","OBJECT_ID":"2013-072K","EPOCH":"2026-03-09T13:09:38.394720","MEAN_MOTION":15.06461805,"ECCENTRICITY":0.0159394,"INCLINATION":120.4656,"RA_OF_ASC_NODE":280.3913,"ARG_OF_PERICENTER":252.2911,"MEAN_ANOMALY":106.0698,"EPHEMERIS_TYPE":0,"CLASSIFICATION_TYPE":"U","NORAD_CAT_ID":39471,"ELEMENT_SET_NO":999,"REV_AT_EPOCH":10021,"BSTAR":0.00057825,"MEAN_MOTION_DOT":0.0001114,"MEAN_MOTION_DDOT":0}]
